{
  "type": "FeatureCollection",
  "features": [
    {
      "type": "Feature",
      "properties": {
        "norad_id": 35032,
        "name": "COSMOS 2251 DEB",
        "group": "cosmos-2251-debris",
        "lat": 5.918085054509442,
        "lon": -156.4053033158735,
        "alt_km": 678.1703394394735,
        "timestamp": "2025-12-03T08:58:46.398852+00:00",
        "meta_object_name": "COSMOS 2251 DEB",
        "meta_object_id": "1993-036AGV",
        "meta_epoch": "2025-12-03T03:23:36.973824",
        "meta_mean_motion": 14.58586985,
        "meta_eccentricity": 0.0068945,
        "meta_inclination": 73.8527,
        "meta_ra_of_asc_node": 25.7636,
        "meta_arg_of_pericenter": 238.5803,
        "meta_mean_anomaly": 154.2077,
        "meta_ephemeris_type": 0,
        "meta_classification_type": "U",
        "meta_norad_cat_id": 35032,
        "meta_element_set_no": 999,
        "meta_rev_at_epoch": 87534,
        "meta_bstar": 0.0014296,
        "meta_mean_motion_dot": 6.849e-05,
        "meta_mean_motion_ddot": 0,
        "tle_line1": "1 35032U 93036AGV 25337.14140016  .00006849  00000+0  14296-2 0  9991",
        "tle_line2": "2 35032  73.8527  25.7636 0068945 238.5803 154.2077 14.58586985875349"
      },
      "geometry": {
        "type": "Point",
        "coordinates": [
          -156.4053033158735,
          5.918085054509442
        ]
      }
    },
    {
      "type": "Feature",
      "properties": {
        "norad_id": 35033,
        "name": "COSMOS 2251 DEB",
        "group": "cosmos-2251-debris",
        "lat": 71.17685012450654,
        "lon": -42.97149024440853,
        "alt_km": 725.2035003917381,
        "timestamp": "2025-12-03T08:58:46.398863+00:00",
        "meta_object_name": "COSMOS 2251 DEB",
        "meta_object_id": "1993-036AGW",
        "meta_epoch": "2025-12-01T21:46:02.380800",
        "meta_mean_motion": 14.50844438,
        "meta_eccentricity": 0.00143855,
        "meta_inclination": 74.0263,
        "meta_ra_of_asc_node": 196.9584,
        "meta_arg_of_pericenter": 303.7279,
        "meta_mean_anomaly": 56.251,
        "meta_ephemeris_type": 0,
        "meta_classification_type": "U",
        "meta_norad_cat_id": 35033,
        "meta_element_set_no": 999,
        "meta_rev_at_epoch": 65770,
        "meta_bstar": 0.00069994659,
        "meta_mean_motion_dot": 2.736e-05,
        "meta_mean_motion_ddot": 0,
        "tle_line1": "1 35033U 93036AGW 25335.90697200  .00002736  00000+0  69995-3 0  9994",
        "tle_line2": "2 35033  74.0263 196.9584 0014385 303.7279  56.2510 14.50844438657707"
      },
      "geometry": {
        "type": "Point",
        "coordinates": [
          -42.97149024440853,
          71.17685012450654
        ]
      }
    },
    {
      "type": "Feature",
      "properties": {
        "norad_id": 35037,
        "name": "COSMOS 2251 DEB",
        "group": "cosmos-2251-debris",
        "lat": -48.24818042247752,
        "lon": -4.843848111057083,
        "alt_km": 296.0874256208899,
        "timestamp": "2025-12-03T08:58:46.398873+00:00",
        "meta_object_name": "COSMOS 2251 DEB",
        "meta_object_id": "1993-036AHA",
        "meta_epoch": "2025-11-07T11:23:37.197312",
        "meta_mean_motion": 15.53719687,
        "meta_eccentricity": 0.0010282,
        "meta_inclination": 73.9601,
        "meta_ra_of_asc_node": 214.7185,
        "meta_arg_of_pericenter": 129.4999,
        "meta_mean_anomaly": 230.7127,
        "meta_ephemeris_type": 0,
        "meta_classification_type": "U",
        "meta_norad_cat_id": 35037,
        "meta_element_set_no": 999,
        "meta_rev_at_epoch": 66656,
        "meta_bstar": 0.0068953187,
        "meta_mean_motion_dot": 0.00469331,
        "meta_mean_motion_ddot": 0,
        "tle_line1": "1 35037U 93036AHA 25311.47473608  .00469331  00000+0  68953-2 0  9998",
        "tle_line2": "2 35037  73.9601 214.7185 0010282 129.4999 230.7127 15.53719687666563"
      },
      "geometry": {
        "type": "Point",
        "coordinates": [
          -4.843848111057083,
          -48.24818042247752
        ]
      }
    },
    {
      "type": "Feature",
      "properties": {
        "norad_id": 35038,
        "name": "COSMOS 2251 DEB",
        "group": "cosmos-2251-debris",
        "lat": -33.59008979617911,
        "lon": -109.6850472352671,
        "alt_km": 894.2624353021347,
        "timestamp": "2025-12-03T08:58:46.398883+00:00",
        "meta_object_name": "COSMOS 2251 DEB",
        "meta_object_id": "1993-036AHB",
        "meta_epoch": "2025-12-02T22:25:29.053056",
        "meta_mean_motion": 14.25054791,
        "meta_eccentricity": 0.0113624,
        "meta_inclination": 74.1068,
        "meta_ra_of_asc_node": 60.197,
        "meta_arg_of_pericenter": 46.834,
        "meta_mean_anomaly": 72.6585,
        "meta_ephemeris_type": 0,
        "meta_classification_type": "U",
        "meta_norad_cat_id": 35038,
        "meta_element_set_no": 999,
        "meta_rev_at_epoch": 85429,
        "meta_bstar": 0.0012453,
        "meta_mean_motion_dot": 3.098e-05,
        "meta_mean_motion_ddot": 0,
        "tle_line1": "1 35038U 93036AHB 25336.93436404  .00003098  00000+0  12453-2 0  9998",
        "tle_line2": "2 35038  74.1068  60.1970 0113624  46.8340  72.6585 14.25054791854291"
      },
      "geometry": {
        "type": "Point",
        "coordinates": [
          -109.6850472352671,
          -33.59008979617911
        ]
      }
    },
    {
      "type": "Feature",
      "properties": {
        "norad_id": 35043,
        "name": "COSMOS 2251 DEB",
        "group": "cosmos-2251-debris",
        "lat": 55.77461517540681,
        "lon": -141.0042555105045,
        "alt_km": 697.871848363653,
        "timestamp": "2025-12-03T08:58:46.398894+00:00",
        "meta_object_name": "COSMOS 2251 DEB",
        "meta_object_id": "1993-036AHG",
        "meta_epoch": "2025-12-01T12:30:27.515520",
        "meta_mean_motion": 14.75939938,
        "meta_eccentricity": 0.00983873,
        "meta_inclination": 73.9533,
        "meta_ra_of_asc_node": 67.6713,
        "meta_arg_of_pericenter": 278.6033,
        "meta_mean_anomaly": 80.4003,
        "meta_ephemeris_type": 0,
        "meta_classification_type": "U",
        "meta_norad_cat_id": 35043,
        "meta_element_set_no": 999,
        "meta_rev_at_epoch": 67253,
        "meta_bstar": 0.0052130245,
        "meta_mean_motion_dot": 0.00038979,
        "meta_mean_motion_ddot": 0,
        "tle_line1": "1 35043U 93036AHG 25335.52115180  .00038979  00000+0  52130-2 0  9995",
        "tle_line2": "2 35043  73.9533  67.6713 0098387 278.6033  80.4003 14.75939938672537"
      },
      "geometry": {
        "type": "Point",
        "coordinates": [
          -141.0042555105045,
          55.77461517540681
        ]
      }
    },
    {
      "type": "Feature",
      "properties": {
        "norad_id": 35045,
        "name": "COSMOS 2251 DEB",
        "group": "cosmos-2251-debris",
        "lat": -5.0792455000624495,
        "lon": 67.75532982616802,
        "alt_km": 796.0726282065061,
        "timestamp": "2025-12-03T08:58:46.398904+00:00",
        "meta_object_name": "COSMOS 2251 DEB",
        "meta_object_id": "1993-036AHJ",
        "meta_epoch": "2025-12-03T00:25:53.959296",
        "meta_mean_motion": 14.00351861,
        "meta_eccentricity": 0.0183181,
        "meta_inclination": 73.7196,
        "meta_ra_of_asc_node": 69.8724,
        "meta_arg_of_pericenter": 313.2553,
        "meta_mean_anomaly": 45.3412,
        "meta_ephemeris_type": 0,
        "meta_classification_type": "U",
        "meta_norad_cat_id": 35045,
        "meta_element_set_no": 999,
        "meta_rev_at_epoch": 84507,
        "meta_bstar": 0.00080749,
        "meta_mean_motion_dot": 1.355e-05,
        "meta_mean_motion_ddot": 0,
        "tle_line1": "1 35045U 93036AHJ 25337.01798564  .00001355  00000+0  80749-3 0  9992",
        "tle_line2": "2 35045  73.7196  69.8724 0183181 313.2553  45.3412 14.00351861845074"
      },
      "geometry": {
        "type": "Point",
        "coordinates": [
          67.75532982616802,
          -5.0792455000624495
        ]
      }
    },
    {
      "type": "Feature",
      "properties": {
        "norad_id": 35060,
        "name": "COSMOS 2251 DEB",
        "group": "cosmos-2251-debris",
        "lat": -45.368114586604065,
        "lon": -115.17611968703372,
        "alt_km": 749.3790089588047,
        "timestamp": "2025-12-03T08:58:46.398914+00:00",
        "meta_object_name": "COSMOS 2251 DEB",
        "meta_object_id": "1993-036AHP",
        "meta_epoch": "2025-11-28T02:37:07.839264",
        "meta_mean_motion": 14.41547968,
        "meta_eccentricity": 0.00179641,
        "meta_inclination": 74.0363,
        "meta_ra_of_asc_node": 271.4275,
        "meta_arg_of_pericenter": 359.5881,
        "meta_mean_anomaly": 0.5257,
        "meta_ephemeris_type": 0,
        "meta_classification_type": "U",
        "meta_norad_cat_id": 35060,
        "meta_element_set_no": 999,
        "meta_rev_at_epoch": 87031,
        "meta_bstar": 0.0004076845,
        "meta_mean_motion_dot": 1.301e-05,
        "meta_mean_motion_ddot": 0,
        "tle_line1": "1 35060U 93036AHP 25332.10911851  .00001301  00000+0  40768-3 0  9998",
        "tle_line2": "2 35060  74.0363 271.4275 0017964 359.5881   0.5257 14.41547968870310"
      },
      "geometry": {
        "type": "Point",
        "coordinates": [
          -115.17611968703372,
          -45.368114586604065
        ]
      }
    }
  ]
}